[{"OBJECT_NAME":"STARLINK-1676","OBJECT_ID":"2020-070AA","EPOCH":"2026-03-09T12:01:20.339904","MEAN_MOTION":15.5130648,"ECCENTRICITY":6.362e-5,"INCLINATION":53.0455,"RA_OF_ASC_NODE":145.9733,"ARG_OF_PERICENTER":52.0249,"MEAN_ANOMALY":308.0817,"EPHEMERIS_TYPE":0,"CLASSIFICATION_TYPE":"U","NORAD_CAT_ID":46556,"ELEMENT_SET_NO":999,"REV_AT_EPOCH":29992,"BSTAR":0.00087592208,"MEAN_MOTION_DOT":0.00052185,"MEAN_MOTION_DDOT":0},{"OBJECT_NAME":"H-2A R\/B","OBJECT_ID":"2016-012E","EPOCH":"2026-03-09T13:56:00.077280","MEAN_MOTION":15.50545748,"ECCENTRICITY":0.000445,"INCLINATION":30.6224,"RA_OF_ASC_NODE":241.3867,"ARG_OF_PERICENTER":267.0024,"MEAN_ANOMALY":93.0109,"EPHEMERIS_TYPE":0,"CLASSIFICATION_TYPE":"U","NORAD_CAT_ID":41341,"ELEMENT_SET_NO":999,"REV_AT_EPOCH":55602,"BSTAR":0.00066465,"MEAN_MOTION_DOT":0.00039664,"MEAN_MOTION_DDOT":0}]
